{
    "links": {
        "self": "http://www.neowsapp.com/rest/v1/neo/3408011?api_key=iIulBulltgU6a56xZRHN4H3l9WmuAYTsLGpBGhQ2"
    },
    "id": "3408011",
    "neo_reference_id": "3408011",
    "name": "(2008 GG)",
    "designation": "2008 GG",
    "nasa_jpl_url": "http://ssd.jpl.nasa.gov/sbdb.cgi?sstr=3408011",
    "absolute_magnitude_h": 20.2,
    "estimated_diameter": {
        "kilometers": {
            "estimated_diameter_min": 0.2424124811,
            "estimated_diameter_max": 0.5420507863
        },
        "meters": {
            "estimated_diameter_min": 242.4124811008,
            "estimated_diameter_max": 542.0507863358
        },
        "miles": {
            "estimated_diameter_min": 0.1506280858,
            "estimated_diameter_max": 0.3368146392
        },
        "feet": {
            "estimated_diameter_min": 795.3165644948,
            "estimated_diameter_max": 1778.3819018419
        }
    },
    "is_potentially_hazardous_asteroid": false,
    "close_approach_data": [
        {
            "close_approach_date": "2007-12-30",
            "close_approach_date_full": "2007-Dec-30 14:07",
            "epoch_date_close_approach": 1199023620000,
            "relative_velocity": {
                "kilometers_per_second": "37.2537082457",
                "kilometers_per_hour": "134113.3496846867",
                "miles_per_hour": "83332.8199749099"
            },
            "miss_distance": {
                "astronomical": "0.0573847713",
                "lunar": "22.3226760357",
                "kilometers": "8584639.556917131",
                "miles": "5334247.6683171678"
            },
            "orbiting_body": "Merc"
        },
        {
            "close_approach_date": "2008-02-18",
            "close_approach_date_full": "2008-Feb-18 12:04",
            "epoch_date_close_approach": 1203336240000,
            "relative_velocity": {
                "kilometers_per_second": "23.5744306099",
                "kilometers_per_hour": "84867.9501955806",
                "miles_per_hour": "52733.6438312484"
            },
            "miss_distance": {
                "astronomical": "0.3642459793",
                "lunar": "141.6916859477",
                "kilometers": "54490422.659344091",
                "miles": "33858778.5880908158"
            },
            "orbiting_body": "Earth"
        }
    ],
    "orbital_data": {
        "orbit_id": "10",
        "orbit_determination_date": "2017-04-06 09:03:50",
        "first_observation_date": "2008-04-01",
        "last_observation_date": "2008-04-06",
        "data_arc_in_days": 5,
        "observations_used": 23,
        "orbit_uncertainty": "9",
        "minimum_orbit_intersection": ".150177",
        "jupiter_tisserand_invariant": "4.331",
        "epoch_osculation": "2454558.5",
        "eccentricity": ".8158960113973285",
        "semi_major_axis": "1.378271956227249",
        "inclination": "20.88651287510172",
        "ascending_node_longitude": "111.2828595493294",
        "orbital_period": "591.0181338973249",
        "perihelion_distance": ".2537453645206433",
        "perihelion_argument": "286.3602666574826",
        "aphelion_distance": "2.502798547933855",
        "perihelion_time": "2454477.356609829527",
        "mean_anomaly": "49.42592923290081",
        "mean_motion": ".609118366006924",
        "equinox": "J2000",
        "orbit_class": {
            "orbit_class_type": "APO",
            "orbit_class_description": "Near-Earth asteroid orbits which cross the Earth’s orbit similar to that of 1862 Apollo",
            "orbit_class_range": "a (semi-major axis) > 1.0 AU; q (perihelion) < 1.017 AU"
        }
    },
    "is_sentry_object": false
}